STARLINK-2494           
1 48487U 21040BM  26068.66164607  .00011650  00000+0  40475-3 0  9991
2 48487  53.1620 194.1526 0001411  74.5162 285.5994 15.30208187266461
HERMES-3                
1 63835U 25052BR  26068.93751242  .00020316  00000+0  69958-3 0  9995
2 63835  97.3987 324.6131 0007993 112.9583 247.2502 15.30039785 54863
