[{"OBJECT_NAME":"STARLINK-2494","OBJECT_ID":"2021-040BM","EPOCH":"2026-03-09T15:52:46.220448","MEAN_MOTION":15.30208187,"ECCENTRICITY":0.00014118,"INCLINATION":53.162,"RA_OF_ASC_NODE":194.1526,"ARG_OF_PERICENTER":74.5162,"MEAN_ANOMALY":285.5994,"EPHEMERIS_TYPE":0,"CLASSIFICATION_TYPE":"U","NORAD_CAT_ID":48487,"ELEMENT_SET_NO":999,"REV_AT_EPOCH":26646,"BSTAR":0.00040475051,"MEAN_MOTION_DOT":0.0001165,"MEAN_MOTION_DDOT":0},{"OBJECT_NAME":"HERMES-3","OBJECT_ID":"2025-052BR","EPOCH":"2026-03-09T22:30:01.073952","MEAN_MOTION":15.30039786,"ECCENTRICITY":0.00079928,"INCLINATION":97.3987,"RA_OF_ASC_NODE":324.6131,"ARG_OF_PERICENTER":112.9583,"MEAN_ANOMALY":247.2502,"EPHEMERIS_TYPE":0,"CLASSIFICATION_TYPE":"U","NORAD_CAT_ID":63835,"ELEMENT_SET_NO":999,"REV_AT_EPOCH":5486,"BSTAR":0.0006995793,"MEAN_MOTION_DOT":0.00020316,"MEAN_MOTION_DDOT":0}]
